SIRION PATHFINDER-2     
1 43759U 18099B   26130.12177992  .00003069  00000+0  17147-3 0  9995
2 43759  97.4283 180.0884 0010415  76.2286 284.0105 15.14198895406869
CORVUS BC4              
1 43767U 18099K   26130.07715384  .00003341  00000+0  19708-3 0  9999
2 43767  97.4099 174.1763 0009734 127.2812 232.9308 15.12182147406641
M2 PATHFINDER           
1 45727U 20037E   26130.07245801  .00002080  00000+0  15301-3 0  9998
2 45727  97.8170 320.8776 0010340 283.3271  76.6802 15.04509533319766
NETSAT-4                
1 46504U 20068U   26129.99726619  .00012143  00000+0  28106-3 0  9994
2 46504  97.8625 135.2098 0007672  97.9912 262.2205 15.42602517309885
NETSAT-3                
1 46505U 20068V   26129.97354449  .00012971  00000+0  31256-3 0  9990
2 46505  97.8673 133.4510 0007470 110.8032 249.4014 15.41371632309797
NETSAT-1                
1 46506U 20068W   26129.97905317  .00008466  00000+0  26217-3 0  9992
2 46506  97.8759 128.2275 0006602 129.7717 230.4107 15.33715318309447
NETSAT-2                
1 46507U 20068X   26129.95578638  .00015551  00000+0  33840-3 0  9996
2 46507  97.8640 134.9315 0006110 118.5774 241.6088 15.44388470309831
GREENCUBE (IO-117)      
1 53109U 22080E   26129.89774275 -.00000003  00000+0  00000+0 0  9991
2 53109  70.1439 311.5673 0008863 298.6643  61.3125  6.42583320 89607
SITRO-AIS 5 (KATYS)     
1 57176U 23091L   26130.17727306  .00007211  00000+0  26168-3 0  9992
2 57176  97.5079 193.7379 0010492 230.4121 129.6192 15.28585070158536
SITRO-AIS 6 (CHIRKIN)   
1 57192U 23091AC  26130.20178684  .00003804  00000+0  15418-3 0  9993
2 57192  97.5088 193.0781 0010655 234.2238 125.8010 15.25230055158495
SITRO-AIS 8 (ANOKHIN)   
1 57193U 23091AD  26130.19335968  .00009054  00000+0  30341-3 0  9997
2 57193  97.5075 195.1934 0009794 225.4992 134.5449 15.31113726158637
SITRO-AIS 7 (FARTUSHNIY)
1 57194U 23091AE  26130.19739829  .00003532  00000+0  14463-3 0  9994
2 57194  97.5086 192.9177 0010481 235.4300 124.5949 15.24936897158484
SITRO-AIS 10 (BURDAEV)  
1 57199U 23091AK  26130.18425149  .00011544  00000+0  31902-3 0  9994
2 57199  97.5094 199.8598 0006775 195.6854 164.4181 15.37185999158926
SITRO-AIS 9 (SHCHUKIN)  
1 57201U 23091AM  26130.19913155  .00011876  00000+0  33289-3 0  9996
2 57201  97.5093 199.6336 0006989 196.2906 163.8114 15.36733879158912
SITRO-AIS 12 (SMIRENNIY)
1 57204U 23091AQ  26130.19684075  .00012034  00000+0  33426-3 0  9995
2 57204  97.5105 200.0749 0006792 190.1198 169.9911 15.37017343158938
SITRO-AIS 11 (SHEFFER)  
1 57208U 23091AU  26130.15521896  .00013699  00000+0  37535-3 0  9999
2 57208  97.5104 200.2561 0006709 189.9669 170.1443 15.37409411158948
SITRO-AIS 25            
1 59066U 24039R   26130.18338399  .00003172  00000+0  24729-3 0  9999
2 59066  95.3919 208.9818 0147615 100.8823 260.9052 14.93244351119052
SITRO-AIS 26            
1 59067U 24039S   26130.17965292  .00003374  00000+0  26402-3 0  9991
2 59067  95.3921 208.8845 0147966 101.4306 260.3579 14.93047217119046
SITRO-AIS 27            
1 59068U 24039T   26130.16045172  .00003954  00000+0  30641-3 0  9991
2 59068  95.3917 209.1255 0147017 100.2383 261.5458 14.93455691119060
SITRO-AIS 28            
1 59071U 24039U   26130.20576860  .00003291  00000+0  25539-3 0  9997
2 59071  95.3921 209.2021 0146738  99.9247 261.8577 14.93491423119072
GRBBETA                 
1 60237U 24128C   26129.98778743  .00002637  00000+0  18909-3 0  9995
2 60237  61.9911 350.2568 0045645 126.7287 233.8011 15.06325443100511
OOV-CUBE (TUBSAT-30)    
1 60240U 24128F   26130.19221705  .00001461  00000+0  12238-3 0  9998
2 60240  61.9963 358.0406 0049153 125.4287 235.1409 15.02579723100405
ROBUSTA-3A (MEDITERRAN*)
1 60243U 24128J   26130.15869678  .00005381  00000+0  32497-3 0  9998
2 60243  61.9877 342.6644 0046442 120.5090 240.0602 15.11079542100674
LASARSAT                
1 62391U 24247Q   26129.37883651  .00026150  00000+0  56666-3 0  9996
2 62391  44.9740 119.8729 0004505  90.2978 269.8427 15.44007397 77313
CROCUBE                 
1 62394U 24247T   26130.00143748  .00024854  00000+0  51051-3 0  9999
2 62394  44.9719 114.2849 0004189  97.3886 262.7480 15.45608845 77438
FORESAIL-1 PRIME        
1 66778U 25276DS  26130.17226676  .00002994  00000+0  14906-3 0  9991
2 66778  97.4206 204.1474 0001505 198.3827 161.7353 15.18350873 24637
KNACKSAT-2              
1 67683U 98067XZ  26130.19119096  .00027635  00000+0  38369-3 0  9992
2 67683  51.6282 125.0927 0012607  58.0156 302.2059 15.56721511 14351
