OBJECT_NAME,OBJECT_ID,EPOCH,MEAN_MOTION,ECCENTRICITY,INCLINATION,RA_OF_ASC_NODE,ARG_OF_PERICENTER,MEAN_ANOMALY,EPHEMERIS_TYPE,CLASSIFICATION_TYPE,NORAD_CAT_ID,ELEMENT_SET_NO,REV_AT_EPOCH,BSTAR,MEAN_MOTION_DOT,MEAN_MOTION_DDOT
SIRION PATHFINDER-2,2018-099B,2026-05-10T02:55:21.785088,15.14198895,.0010415,97.4283,180.0884,76.2286,284.0105,0,U,43759,999,40686,.17147E-3,.3069E-4,0
CORVUS BC4,2018-099K,2026-05-10T01:51:06.091776,15.12182147,.0009734,97.4099,174.1763,127.2812,232.9308,0,U,43767,999,40664,.19708E-3,.3341E-4,0
M2 PATHFINDER,2020-037E,2026-05-10T01:44:20.372064,15.04509533,.001034,97.8170,320.8776,283.3271,76.6802,0,U,45727,999,31976,.15301E-3,.208E-4,0
NETSAT-4,2020-068U,2026-05-09T23:56:03.798816,15.42602517,.0007672,97.8625,135.2098,97.9912,262.2205,0,U,46504,999,30988,.28106E-3,.12143E-3,0
NETSAT-3,2020-068V,2026-05-09T23:21:54.243936,15.41371632,.000747,97.8673,133.4510,110.8032,249.4014,0,U,46505,999,30979,.31256E-3,.12971E-3,0
NETSAT-1,2020-068W,2026-05-09T23:29:50.193888,15.33715318,.0006602,97.8759,128.2275,129.7717,230.4107,0,U,46506,999,30944,.26217E-3,.8466E-4,0
NETSAT-2,2020-068X,2026-05-09T22:56:19.943232,15.44388470,.000611,97.8640,134.9315,118.5774,241.6088,0,U,46507,999,30983,.3384E-3,.15551E-3,0
GREENCUBE (IO-117),2022-080E,2026-05-09T21:32:44.973600,6.42583320,.0008863,70.1439,311.5673,298.6643,61.3125,0,U,53109,999,8960,0,-.3E-7,0
SITRO-AIS 5 (KATYS),2023-091L,2026-05-10T04:15:16.392384,15.28585070,.0010492,97.5079,193.7379,230.4121,129.6192,0,U,57176,999,15853,.26168E-3,.7211E-4,0
SITRO-AIS 6 (CHIRKIN),2023-091AC,2026-05-10T04:50:34.382976,15.25230055,.0010655,97.5088,193.0781,234.2238,125.8010,0,U,57192,999,15849,.15418E-3,.3804E-4,0
SITRO-AIS 8 (ANOKHIN),2023-091AD,2026-05-10T04:38:26.276352,15.31113726,.0009794,97.5075,195.1934,225.4992,134.5449,0,U,57193,999,15863,.30341E-3,.9054E-4,0
SITRO-AIS 7 (FARTUSHNIY),2023-091AE,2026-05-10T04:44:15.212256,15.24936897,.0010481,97.5086,192.9177,235.4300,124.5949,0,U,57194,999,15848,.14463E-3,.3532E-4,0
SITRO-AIS 10 (BURDAEV),2023-091AK,2026-05-10T04:25:19.328736,15.37185999,.0006775,97.5094,199.8598,195.6854,164.4181,0,U,57199,999,15892,.31902E-3,.11544E-3,0
SITRO-AIS 9 (SHCHUKIN),2023-091AM,2026-05-10T04:46:44.965920,15.36733879,.0006989,97.5093,199.6336,196.2906,163.8114,0,U,57201,999,15891,.33289E-3,.11876E-3,0
SITRO-AIS 12 (SMIRENNIY),2023-091AQ,2026-05-10T04:43:27.040800,15.37017343,.0006792,97.5105,200.0749,190.1198,169.9911,0,U,57204,999,15893,.33426E-3,.12034E-3,0
SITRO-AIS 11 (SHEFFER),2023-091AU,2026-05-10T03:43:30.918144,15.37409411,.0006709,97.5104,200.2561,189.9669,170.1443,0,U,57208,999,15894,.37535E-3,.13699E-3,0
SITRO-AIS 25,2024-039R,2026-05-10T04:24:04.376736,14.93244351,.0147615,95.3919,208.9818,100.8823,260.9052,0,U,59066,999,11905,.24729E-3,.3172E-4,0
SITRO-AIS 26,2024-039S,2026-05-10T04:18:42.012288,14.93047217,.0147966,95.3921,208.8845,101.4306,260.3579,0,U,59067,999,11904,.26402E-3,.3374E-4,0
SITRO-AIS 27,2024-039T,2026-05-10T03:51:03.028608,14.93455691,.0147017,95.3917,209.1255,100.2383,261.5458,0,U,59068,999,11906,.30641E-3,.3954E-4,0
SITRO-AIS 28,2024-039U,2026-05-10T04:56:18.407040,14.93491423,.0146738,95.3921,209.2021,99.9247,261.8577,0,U,59071,999,11907,.25539E-3,.3291E-4,0
GRBBETA,2024-128C,2026-05-09T23:42:24.833952,15.06325443,.0045645,61.9911,350.2568,126.7287,233.8011,0,U,60237,999,10051,.18909E-3,.2637E-4,0
OOV-CUBE (TUBSAT-30),2024-128F,2026-05-10T04:36:47.553120,15.02579723,.0049153,61.9963,358.0406,125.4287,235.1409,0,U,60240,999,10040,.12238E-3,.1461E-4,0
ROBUSTA-3A (MEDITERRANEE),2024-128J,2026-05-10T03:48:31.401792,15.11079542,.0046442,61.9877,342.6644,120.5090,240.0602,0,U,60243,999,10067,.32497E-3,.5381E-4,0
LASARSAT,2024-247Q,2026-05-09T09:05:31.474464,15.44007397,.00045054,44.9740,119.8729,90.2978,269.8427,0,U,62391,999,7731,.5666619E-3,.2615E-3,0
CROCUBE,2024-247T,2026-05-10T00:02:04.198272,15.45608845,.0004189,44.9719,114.2849,97.3886,262.7480,0,U,62394,999,7743,.51051E-3,.24854E-3,0
FORESAIL-1 PRIME,2025-276DS,2026-05-10T04:08:03.848064,15.18350873,.0001505,97.4206,204.1474,198.3827,161.7353,0,U,66778,999,2463,.14906E-3,.2994E-4,0
KNACKSAT-2,1998-067XZ,2026-05-10T04:35:18.898944,15.56721511,.0012607,51.6282,125.0927,58.0156,302.2059,0,U,67683,999,1435,.38369E-3,.27635E-3,0
